start=new Date('2023-01-19T00:00:00.000Z').valueOf();
sats=[{"MEAN_ANOMALY":"284.8247","SITE":"AFETR","PERIOD":"95.437","OBJECT_ID":"2022-053F","TLE_LINE1":"1 52661U 22053F   23018.92935084  .00007722  00000-0  50259-3 0  9998","DECAY_DATE":null,"REF_FRAME":"TEME","MEAN_MOTION":"15.08852337","MEAN_MOTION_DOT":"0.00007722","EPHEMERIS_TYPE":"0","RA_OF_ASC_NODE":"257.6388","FILE":"3754254","ARG_OF_PERICENTER":"75.2904","MEAN_MOTION_DDOT":"0.0000000000000","REV_AT_EPOCH":"3807","GP_ID":"223456465","RCS_SIZE":"LARGE","CLASSIFICATION_TYPE":"U","COUNTRY_CODE":"US","NORAD_CAT_ID":"52661","OBJECT_NAME":"STARLINK-4042","MEAN_ELEMENT_THEORY":"SGP4","TLE_LINE2":"2 52661  53.2170 257.6388 0001430  75.2904 284.8247 15.08852337 38079","ECCENTRICITY":"0.00014300","SEMIMAJOR_AXIS":"6917.843","EPOCH":"2023-01-18T22:18:15.912576","LAUNCH_DATE":"2022-05-18","BSTAR":"0.00050259000000","PERIAPSIS":"538.718","OBJECT_TYPE":"PAYLOAD","CENTER_NAME":"EARTH","APOAPSIS":"540.697","INCLINATION":"53.2170","ELEMENT_SET_NO":"999","TIME_SYSTEM":"UTC"},{"MEAN_MOTION_DDOT":"0.0000000000000","FILE":"3754254","ARG_OF_PERICENTER":"59.4467","RA_OF_ASC_NODE":"257.6775","EPHEMERIS_TYPE":"0","MEAN_MOTION_DOT":"0.00023329","TLE_LINE1":"1 52662U 22053G   23018.92199207  .00023329  00000-0  14782-2 0  9999","DECAY_DATE":null,"REF_FRAME":"TEME","MEAN_MOTION":"15.08860172","OBJECT_ID":"2022-053G","PERIOD":"95.436","MEAN_ANOMALY":"300.6673","SITE":"AFETR","INCLINATION":"53.2115","ELEMENT_SET_NO":"999","TIME_SYSTEM":"UTC","APOAPSIS":"540.718","BSTAR":"0.00147820000000","OBJECT_TYPE":"PAYLOAD","PERIAPSIS":"538.650","CENTER_NAME":"EARTH","LAUNCH_DATE":"2022-05-18","SEMIMAJOR_AXIS":"6917.819","EPOCH":"2023-01-18T22:07:40.114848","NORAD_CAT_ID":"52662","OBJECT_NAME":"STARLINK-4044","TLE_LINE2":"2 52662  53.2115 257.6775 0001495  59.4467 300.6673 15.08860172 38074","MEAN_ELEMENT_THEORY":"SGP4","ECCENTRICITY":"0.00014950","REV_AT_EPOCH":"3807","CLASSIFICATION_TYPE":"U","GP_ID":"223455714","RCS_SIZE":"LARGE","COUNTRY_CODE":"US"},{"MEAN_MOTION_DOT":"0.00011175","RA_OF_ASC_NODE":"257.6943","EPHEMERIS_TYPE":"0","FILE":"3754254","ARG_OF_PERICENTER":"80.8892","MEAN_MOTION_DDOT":"0.0000000000000","MEAN_ANOMALY":"279.2271","SITE":"AFETR","PERIOD":"95.436","OBJECT_ID":"2022-053H","TLE_LINE1":"1 52663U 22053H   23018.91830830  .00011175  00000-0  71869-3 0  9999","REF_FRAME":"TEME","DECAY_DATE":null,"MEAN_MOTION":"15.08859532","BSTAR":"0.00071869000000","OBJECT_TYPE":"PAYLOAD","CENTER_NAME":"EARTH","PERIAPSIS":"538.638","APOAPSIS":"540.733","INCLINATION":"53.2150","ELEMENT_SET_NO":"999","TIME_SYSTEM":"UTC","REV_AT_EPOCH":"3807","GP_ID":"223455964","CLASSIFICATION_TYPE":"U","RCS_SIZE":"LARGE","COUNTRY_CODE":"US","NORAD_CAT_ID":"52663","OBJECT_NAME":"STARLINK-4037","MEAN_ELEMENT_THEORY":"SGP4","TLE_LINE2":"2 52663  53.2150 257.6943 0001514  80.8892 279.2271 15.08859532 38076","ECCENTRICITY":"0.00015140","EPOCH":"2023-01-18T22:02:21.837120","SEMIMAJOR_AXIS":"6917.821","LAUNCH_DATE":"2022-05-18"},{"OBJECT_ID":"2022-053J","TLE_LINE1":"1 52664U 22053J   23018.92566989  .00011401  00000-0  73291-3 0  9995","REF_FRAME":"TEME","DECAY_DATE":null,"MEAN_MOTION":"15.08856961","MEAN_ANOMALY":"293.9669","SITE":"AFETR","PERIOD":"95.436","FILE":"3754254","ARG_OF_PERICENTER":"66.1454","MEAN_MOTION_DDOT":"0.0000000000000","MEAN_MOTION_DOT":"0.00011401","RA_OF_ASC_NODE":"257.6671","EPHEMERIS_TYPE":"0","EPOCH":"2023-01-18T22:12:57.878496","SEMIMAJOR_AXIS":"6917.829","LAUNCH_DATE":"2022-05-18","REV_AT_EPOCH":"3807","GP_ID":"223456215","CLASSIFICATION_TYPE":"U","RCS_SIZE":"LARGE","COUNTRY_CODE":"US","NORAD_CAT_ID":"52664","OBJECT_NAME":"STARLINK-4070","TLE_LINE2":"2 52664  53.2135 257.6671 0001256  66.1454 293.9669 15.08856961 38079","MEAN_ELEMENT_THEORY":"SGP4","ECCENTRICITY":"0.00012560","INCLINATION":"53.2135","ELEMENT_SET_NO":"999","TIME_SYSTEM":"UTC","BSTAR":"0.00073291000000","CENTER_NAME":"EARTH","OBJECT_TYPE":"PAYLOAD","PERIAPSIS":"538.825","APOAPSIS":"540.562"},{"OBJECT_ID":"2022-053K","TLE_LINE1":"1 52665U 22053K   23018.90727015  .00007655  00000-0  49833-3 0  9994","MEAN_MOTION":"15.08852556","DECAY_DATE":null,"REF_FRAME":"TEME","MEAN_ANOMALY":"274.3693","SITE":"AFETR","PERIOD":"95.437","ARG_OF_PERICENTER":"85.7461","FILE":"3754254","MEAN_MOTION_DDOT":"0.0000000000000","MEAN_MOTION_DOT":"0.00007655","EPHEMERIS_TYPE":"0","RA_OF_ASC_NODE":"257.7457","SEMIMAJOR_AXIS":"6917.842","EPOCH":"2023-01-18T21:46:28.140960","LAUNCH_DATE":"2022-05-18","GP_ID":"223456965","RCS_SIZE":"LARGE","CLASSIFICATION_TYPE":"U","REV_AT_EPOCH":"3807","COUNTRY_CODE":"US","OBJECT_NAME":"STARLINK-4064","NORAD_CAT_ID":"52665","ECCENTRICITY":"0.00014250","TLE_LINE2":"2 52665  53.2134 257.7457 0001425  85.7461 274.3693 15.08852556 38071","MEAN_ELEMENT_THEORY":"SGP4","INCLINATION":"53.2134","TIME_SYSTEM":"UTC","ELEMENT_SET_NO":"999","CENTER_NAME":"EARTH","OBJECT_TYPE":"PAYLOAD","PERIAPSIS":"538.721","BSTAR":"0.00049833000000","APOAPSIS":"540.693"},{"PERIOD":"95.437","MEAN_ANOMALY":"262.3403","SITE":"AFETR","TLE_LINE1":"1 52666U 22053L   23018.91463076  .00007830  00000-0  50932-3 0  9997","MEAN_MOTION":"15.08851205","REF_FRAME":"TEME","DECAY_DATE":null,"OBJECT_ID":"2022-053L","EPHEMERIS_TYPE":"0","RA_OF_ASC_NODE":"257.7121","MEAN_MOTION_DOT":"0.00007830","MEAN_MOTION_DDOT":"0.0000000000000","ARG_OF_PERICENTER":"97.7718","FILE":"3754254","OBJECT_NAME":"STARLINK-4079","NORAD_CAT_ID":"52666","ECCENTRICITY":"0.00011360","MEAN_ELEMENT_THEORY":"SGP4","TLE_LINE2":"2 52666  53.2146 257.7121 0001136  97.7718 262.3403 15.08851205 38076","GP_ID":"223455214","CLASSIFICATION_TYPE":"U","RCS_SIZE":"LARGE","REV_AT_EPOCH":"3807","COUNTRY_CODE":"US","LAUNCH_DATE":"2022-05-18","EPOCH":"2023-01-18T21:57:04.097664","SEMIMAJOR_AXIS":"6917.846","APOAPSIS":"540.497","CENTER_NAME":"EARTH","OBJECT_TYPE":"PAYLOAD","PERIAPSIS":"538.925","BSTAR":"0.00050932000000","INCLINATION":"53.2146","TIME_SYSTEM":"UTC","ELEMENT_SET_NO":"999"},{"MEAN_ANOMALY":"271.9026","SITE":"AFETR","PERIOD":"95.437","OBJECT_ID":"2022-053M","TLE_LINE1":"1 52667U 22053M   23018.90358994  .00007904  00000-0  51400-3 0  9992","REF_FRAME":"TEME","DECAY_DATE":null,"MEAN_MOTION":"15.08848791","MEAN_MOTION_DOT":"0.00007904","EPHEMERIS_TYPE":"0","RA_OF_ASC_NODE":"257.7653","FILE":"3754254","ARG_OF_PERICENTER":"88.2164","MEAN_MOTION_DDOT":"0.0000000000000","REV_AT_EPOCH":"3807","CLASSIFICATION_TYPE":"U","GP_ID":"223455464","RCS_SIZE":"LARGE","COUNTRY_CODE":"US","NORAD_CAT_ID":"52667","OBJECT_NAME":"STARLINK-4076","MEAN_ELEMENT_THEORY":"SGP4","TLE_LINE2":"2 52667  53.2152 257.7653 0001729  88.2164 271.9026 15.08848791 38075","ECCENTRICITY":"0.00017290","SEMIMAJOR_AXIS":"6917.854","EPOCH":"2023-01-18T21:41:10.170816","LAUNCH_DATE":"2022-05-18","BSTAR":"0.00051400000000","PERIAPSIS":"538.522","OBJECT_TYPE":"PAYLOAD","CENTER_NAME":"EARTH","APOAPSIS":"540.915","INCLINATION":"53.2152","ELEMENT_SET_NO":"999","TIME_SYSTEM":"UTC"},{"MEAN_ANOMALY":"275.6953","SITE":"AFETR","PERIOD":"95.436","OBJECT_ID":"2022-053N","TLE_LINE1":"1 52668U 22053N   23018.91094895  .00010644  00000-0  68553-3 0  9993","MEAN_MOTION":"15.08857825","REF_FRAME":"TEME","DECAY_DATE":null,"MEAN_MOTION_DOT":"0.00010644","RA_OF_ASC_NODE":"257.7332","EPHEMERIS_TYPE":"0","ARG_OF_PERICENTER":"84.4223","FILE":"3754254","MEAN_MOTION_DDOT":"0.0000000000000","RCS_SIZE":"LARGE","GP_ID":"223456715","CLASSIFICATION_TYPE":"U","REV_AT_EPOCH":"3807","COUNTRY_CODE":"US","NORAD_CAT_ID":"52668","OBJECT_NAME":"STARLINK-4067","ECCENTRICITY":"0.00016140","MEAN_ELEMENT_THEORY":"SGP4","TLE_LINE2":"2 52668  53.2131 257.7332 0001614  84.4223 275.6953 15.08857825 38072","SEMIMAJOR_AXIS":"6917.826","EPOCH":"2023-01-18T21:51:45.989280","LAUNCH_DATE":"2022-05-18","OBJECT_TYPE":"PAYLOAD","PERIAPSIS":"538.574","CENTER_NAME":"EARTH","BSTAR":"0.00068553000000","APOAPSIS":"540.807","INCLINATION":"53.2131","TIME_SYSTEM":"UTC","ELEMENT_SET_NO":"999"},{"NORAD_CAT_ID":"52669","OBJECT_NAME":"STARLINK-3972","ECCENTRICITY":"0.00015030","MEAN_ELEMENT_THEORY":"SGP4","TLE_LINE2":"2 52669  53.2123 257.8082 0001503  49.3788 310.7335 15.08847912 38060","GP_ID":"223456466","CLASSIFICATION_TYPE":"U","RCS_SIZE":"LARGE","REV_AT_EPOCH":"3806","COUNTRY_CODE":"US","LAUNCH_DATE":"2022-05-18","SEMIMAJOR_AXIS":"6917.856","EPOCH":"2023-01-18T21:25:16.402944","APOAPSIS":"540.761","CENTER_NAME":"EARTH","OBJECT_TYPE":"PAYLOAD","PERIAPSIS":"538.681","BSTAR":"0.00034604000000","INCLINATION":"53.2123","TIME_SYSTEM":"UTC","ELEMENT_SET_NO":"999","PERIOD":"95.437","MEAN_ANOMALY":"310.7335","SITE":"AFETR","TLE_LINE1":"1 52669U 22053P   23018.89255096  .00005225  00000-0  34604-3 0  9992","MEAN_MOTION":"15.08847912","REF_FRAME":"TEME","DECAY_DATE":null,"OBJECT_ID":"2022-053P","EPHEMERIS_TYPE":"0","RA_OF_ASC_NODE":"257.8082","MEAN_MOTION_DOT":"0.00005225","MEAN_MOTION_DDOT":"0.0000000000000","ARG_OF_PERICENTER":"49.3788","FILE":"3754254"},{"EPHEMERIS_TYPE":"0","RA_OF_ASC_NODE":"257.7391","MEAN_MOTION_DOT":"0.00027025","MEAN_MOTION_DDOT":"0.0000000000000","ARG_OF_PERICENTER":"66.2259","FILE":"3754254","PERIOD":"95.436","SITE":"AFETR","MEAN_ANOMALY":"293.8867","MEAN_MOTION":"15.08857694","DECAY_DATE":null,"REF_FRAME":"TEME","TLE_LINE1":"1 52670U 22053Q   23018.90822878  .00027025  00000-0  17088-2 0  9992","OBJECT_ID":"2022-053Q","APOAPSIS":"540.577","PERIAPSIS":"538.805","OBJECT_TYPE":"PAYLOAD","CENTER_NAME":"EARTH","BSTAR":"0.00170880000000","TIME_SYSTEM":"UTC","ELEMENT_SET_NO":"999","INCLINATION":"53.2126","ECCENTRICITY":"0.00012810","TLE_LINE2":"2 52670  53.2126 257.7391 0001281  66.2259 293.8867 15.08857694 38071","MEAN_ELEMENT_THEORY":"SGP4","NORAD_CAT_ID":"52670","OBJECT_NAME":"STARLINK-4075","COUNTRY_CODE":"US","GP_ID":"223455715","CLASSIFICATION_TYPE":"U","RCS_SIZE":"LARGE","REV_AT_EPOCH":"3807","LAUNCH_DATE":"2022-05-18","SEMIMAJOR_AXIS":"6917.826","EPOCH":"2023-01-18T21:47:50.966592"}];
